STARLINK-2641
1 18369C 21038S   21326.17030762  .00007095  00000-0  47546-3 0  3268
2 18369  53.0515 192.9700 0002021  70.0936 153.8498 15.06386429    12
